{
    "links": {
        "self": "http://www.neowsapp.com/rest/v1/neo/3402206?api_key=iIulBulltgU6a56xZRHN4H3l9WmuAYTsLGpBGhQ2"
    },
    "id": "3402206",
    "neo_reference_id": "3402206",
    "name": "(2008 CJ22)",
    "designation": "2008 CJ22",
    "nasa_jpl_url": "http://ssd.jpl.nasa.gov/sbdb.cgi?sstr=3402206",
    "absolute_magnitude_h": 25.5,
    "estimated_diameter": {
        "kilometers": {
            "estimated_diameter_min": 0.0211132445,
            "estimated_diameter_max": 0.0472106499
        },
        "meters": {
            "estimated_diameter_min": 21.113244479,
            "estimated_diameter_max": 47.2106498806
        },
        "miles": {
            "estimated_diameter_min": 0.0131191578,
            "estimated_diameter_max": 0.0293353287
        },
        "feet": {
            "estimated_diameter_min": 69.2691770164,
            "estimated_diameter_max": 154.8905885541
        }
    },
    "is_potentially_hazardous_asteroid": false,
    "close_approach_data": [
        {
            "close_approach_date": "2008-02-06",
            "close_approach_date_full": "2008-Feb-06 08:36",
            "epoch_date_close_approach": 1202286960000,
            "relative_velocity": {
                "kilometers_per_second": "11.5287062191",
                "kilometers_per_hour": "41503.3423888961",
                "miles_per_hour": "25788.5629415893"
            },
            "miss_distance": {
                "astronomical": "0.0790697857",
                "lunar": "30.7581466373",
                "kilometers": "11828671.522076459",
                "miles": "7349995.6599907742"
            },
            "orbiting_body": "Earth"
        }
    ],
    "orbital_data": {
        "orbit_id": "6",
        "orbit_determination_date": "2017-04-06 09:04:27",
        "first_observation_date": "2008-02-08",
        "last_observation_date": "2008-02-09",
        "data_arc_in_days": 1,
        "observations_used": 13,
        "orbit_uncertainty": "9",
        "minimum_orbit_intersection": ".0781068",
        "jupiter_tisserand_invariant": "4.558",
        "epoch_osculation": "2454505.5",
        "eccentricity": ".2780314533674614",
        "semi_major_axis": "1.441225787262137",
        "inclination": "20.43912510073551",
        "ascending_node_longitude": "140.0465515363011",
        "orbital_period": "631.9700008453862",
        "perihelion_distance": "1.040519686998981",
        "perihelion_argument": "332.1173138411268",
        "aphelion_distance": "1.841931887525292",
        "perihelion_time": "2454478.596070383609",
        "mean_anomaly": "15.32575066687435",
        "mean_motion": ".5696472926221625",
        "equinox": "J2000",
        "orbit_class": {
            "orbit_class_type": "AMO",
            "orbit_class_description": "Near-Earth asteroid orbits similar to that of 1221 Amor",
            "orbit_class_range": "1.017 AU < q (perihelion) < 1.3 AU"
        }
    },
    "is_sentry_object": false
}